{
  "norad_id": 60946,
  "name": "YAOGAN-43 02B",
  "history": [
    {
      "epoch": "2026-03-28T22:44:27.811104Z",
      "apogee_km": 497.7694991844601,
      "perigee_km": 495.5386294840828,
      "latitude_deg": 4.428429635976365e-06,
      "longitude_deg": 175.1945486536621,
      "height_km": 494.94771493804024,
      "semi_major_axis_km": 6874.791064334271,
      "eccentricity": 0.00016225,
      "inclination_deg": 34.9956,
      "raan_deg": 342.6711,
      "arg_perigee_deg": 56.737,
      "mean_anomaly_deg": 303.35,
      "mean_motion_rev_day": 15.23047704
    },
    {
      "epoch": "2026-03-29T03:27:38.291616Z",
      "apogee_km": 497.7365440898402,
      "perigee_km": 495.53386707517075,
      "latitude_deg": -1.7412799334110074e-05,
      "longitude_deg": 102.97022270308128,
      "height_km": 494.9883601254073,
      "semi_major_axis_km": 6874.772205582505,
      "eccentricity": 0.0001602,
      "inclination_deg": 34.9955,
      "raan_deg": 341.4343,
      "arg_perigee_deg": 59.9057,
      "mean_anomaly_deg": 300.1816,
      "mean_motion_rev_day": 15.23053971
    },
    {
      "epoch": "2026-03-30T03:03:29.314368Z",
      "apogee_km": 497.5542411454835,
      "perigee_km": 495.48290742095196,
      "latitude_deg": 9.404812393508339e-06,
      "longitude_deg": 101.85415143113562,
      "height_km": 495.125242536154,
      "semi_major_axis_km": 6874.655574283218,
      "eccentricity": 0.00015065,
      "inclination_deg": 34.9956,
      "raan_deg": 335.2499,
      "arg_perigee_deg": 73.2432,
      "mean_anomaly_deg": 286.8448,
      "mean_motion_rev_day": 15.2309273
    },
    {
      "epoch": "2026-03-30T23:30:31.914720Z",
      "apogee_km": 497.40785393693113,
      "perigee_km": 495.44337892366,
      "latitude_deg": 5.547025579614655e-06,
      "longitude_deg": 148.89323081408526,
      "height_km": 495.26054307455155,
      "semi_major_axis_km": 6874.562616430295,
      "eccentricity": 0.00014288,
      "inclination_deg": 34.9959,
      "raan_deg": 329.8897,
      "arg_perigee_deg": 85.8948,
      "mean_anomaly_deg": 274.193,
      "mean_motion_rev_day": 15.23123623
    }
  ]
}